{
  "type": "FeatureCollection",
  "features": [
    {
      "type": "Feature",
      "properties": {
        "norad_id": 36453,
        "name": "COSMOS 2251 DEB",
        "group": "cosmos-2251-debris",
        "lat": -71.75660279537595,
        "lon": 69.67307588328585,
        "alt_km": 742.4726908327357,
        "timestamp": "2025-12-24T03:53:30.044579+00:00",
        "meta_object_name": "COSMOS 2251 DEB",
        "meta_object_id": "1993-036BBC",
        "meta_epoch": "2025-12-22T19:53:39.232320",
        "meta_mean_motion": 14.52671093,
        "meta_eccentricity": 0.00706202,
        "meta_inclination": 73.9241,
        "meta_ra_of_asc_node": 133.2304,
        "meta_arg_of_pericenter": 33.762,
        "meta_mean_anomaly": 116.2668,
        "meta_ephemeris_type": 0,
        "meta_classification_type": "U",
        "meta_norad_cat_id": 36453,
        "meta_element_set_no": 999,
        "meta_rev_at_epoch": 84614,
        "meta_bstar": 0.00082517813,
        "meta_mean_motion_dot": 3.465e-05,
        "meta_mean_motion_ddot": 0,
        "tle_line1": "1 36453U 93036BBC 25356.82892630  .00003465  00000+0  82518-3 0  9995",
        "tle_line2": "2 36453  73.9241 133.2304 0070620  33.7620 116.2668 14.52671093846142"
      },
      "geometry": {
        "type": "Point",
        "coordinates": [
          69.67307588328585,
          -71.75660279537595
        ]
      }
    },
    {
      "type": "Feature",
      "properties": {
        "norad_id": 36459,
        "name": "COSMOS 2251 DEB",
        "group": "cosmos-2251-debris",
        "lat": -21.476237994753173,
        "lon": 165.62192766588447,
        "alt_km": 860.6057563490576,
        "timestamp": "2025-12-24T03:53:30.044590+00:00",
        "meta_object_name": "COSMOS 2251 DEB",
        "meta_object_id": "1993-036BBJ",
        "meta_epoch": "2025-12-20T06:23:01.272480",
        "meta_mean_motion": 14.26454896,
        "meta_eccentricity": 0.0113312,
        "meta_inclination": 74.0464,
        "meta_ra_of_asc_node": 346.1968,
        "meta_arg_of_pericenter": 79.9168,
        "meta_mean_anomaly": 281.4741,
        "meta_ephemeris_type": 0,
        "meta_classification_type": "U",
        "meta_norad_cat_id": 36459,
        "meta_element_set_no": 999,
        "meta_rev_at_epoch": 7989,
        "meta_bstar": 0.00092616994,
        "meta_mean_motion_dot": 2.362e-05,
        "meta_mean_motion_ddot": 0,
        "tle_line1": "1 36459U 93036BBJ 25354.26598695  .00002362  00000+0  92617-3 0  9997",
        "tle_line2": "2 36459  74.0464 346.1968 0113312  79.9168 281.4741 14.26454896 79891"
      },
      "geometry": {
        "type": "Point",
        "coordinates": [
          165.62192766588447,
          -21.476237994753173
        ]
      }
    },
    {
      "type": "Feature",
      "properties": {
        "norad_id": 36470,
        "name": "COSMOS 2251 DEB",
        "group": "cosmos-2251-debris",
        "lat": -14.961010606267232,
        "lon": -133.7991568153299,
        "alt_km": 541.7537623836715,
        "timestamp": "2025-12-24T03:53:30.044600+00:00",
        "meta_object_name": "COSMOS 2251 DEB",
        "meta_object_id": "1993-036BBV",
        "meta_epoch": "2025-12-15T00:13:00.014016",
        "meta_mean_motion": 15.07582269,
        "meta_eccentricity": 0.00222568,
        "meta_inclination": 73.8449,
        "meta_ra_of_asc_node": 249.6845,
        "meta_arg_of_pericenter": 78.1368,
        "meta_mean_anomaly": 282.2316,
        "meta_ephemeris_type": 0,
        "meta_classification_type": "U",
        "meta_norad_cat_id": 36470,
        "meta_element_set_no": 999,
        "meta_rev_at_epoch": 66128,
        "meta_bstar": 0.0018721064,
        "meta_mean_motion_dot": 0.0002872,
        "meta_mean_motion_ddot": 0,
        "tle_line1": "1 36470U 93036BBV 25349.00902794  .00028720  00000+0  18721-2 0  9994",
        "tle_line2": "2 36470  73.8449 249.6845 0022256  78.1368 282.2316 15.07582269661287"
      },
      "geometry": {
        "type": "Point",
        "coordinates": [
          -133.7991568153299,
          -14.961010606267232
        ]
      }
    },
    {
      "type": "Feature",
      "properties": {
        "norad_id": 36528,
        "name": "COSMOS 2251 DEB",
        "group": "cosmos-2251-debris",
        "lat": 49.31604394553552,
        "lon": -75.07362794848115,
        "alt_km": 740.5495057618828,
        "timestamp": "2025-12-24T03:53:30.044610+00:00",
        "meta_object_name": "COSMOS 2251 DEB",
        "meta_object_id": "1993-036BCN",
        "meta_epoch": "2025-12-23T02:07:16.025088",
        "meta_mean_motion": 14.30700517,
        "meta_eccentricity": 0.00843039,
        "meta_inclination": 74.0164,
        "meta_ra_of_asc_node": 126.3587,
        "meta_arg_of_pericenter": 173.6908,
        "meta_mean_anomaly": 186.5326,
        "meta_ephemeris_type": 0,
        "meta_classification_type": "U",
        "meta_norad_cat_id": 36528,
        "meta_element_set_no": 999,
        "meta_rev_at_epoch": 64575,
        "meta_bstar": 0.0012053089,
        "meta_mean_motion_dot": 3.253e-05,
        "meta_mean_motion_ddot": 0,
        "tle_line1": "1 36528U 93036BCN 25357.08837992  .00003253  00000+0  12053-2 0  9998",
        "tle_line2": "2 36528  74.0164 126.3587 0084303 173.6908 186.5326 14.30700517645758"
      },
      "geometry": {
        "type": "Point",
        "coordinates": [
          -75.07362794848115,
          49.31604394553552
        ]
      }
    },
    {
      "type": "Feature",
      "properties": {
        "norad_id": 36533,
        "name": "COSMOS 2251 DEB",
        "group": "cosmos-2251-debris",
        "lat": -5.7740397882529075,
        "lon": 91.69296469930974,
        "alt_km": 743.4857669444746,
        "timestamp": "2025-12-24T03:53:30.044620+00:00",
        "meta_object_name": "COSMOS 2251 DEB",
        "meta_object_id": "1993-036BCT",
        "meta_epoch": "2025-12-20T07:10:55.572384",
        "meta_mean_motion": 14.49841548,
        "meta_eccentricity": 0.00492519,
        "meta_inclination": 74.0124,
        "meta_ra_of_asc_node": 100.614,
        "meta_arg_of_pericenter": 248.4514,
        "meta_mean_anomaly": 111.1393,
        "meta_ephemeris_type": 0,
        "meta_classification_type": "U",
        "meta_norad_cat_id": 36533,
        "meta_element_set_no": 999,
        "meta_rev_at_epoch": 84594,
        "meta_bstar": 0.00033689925,
        "meta_mean_motion_dot": 1.292e-05,
        "meta_mean_motion_ddot": 0,
        "tle_line1": "1 36533U 93036BCT 25354.29925431  .00001292  00000+0  33690-3 0  9992",
        "tle_line2": "2 36533  74.0124 100.6140 0049251 248.4514 111.1393 14.49841548845948"
      },
      "geometry": {
        "type": "Point",
        "coordinates": [
          91.69296469930974,
          -5.7740397882529075
        ]
      }
    },
    {
      "type": "Feature",
      "properties": {
        "norad_id": 36539,
        "name": "COSMOS 2251 DEB",
        "group": "cosmos-2251-debris",
        "lat": -43.295528033756355,
        "lon": -130.94983121017216,
        "alt_km": 689.2250867378989,
        "timestamp": "2025-12-24T03:53:30.044630+00:00",
        "meta_object_name": "COSMOS 2251 DEB",
        "meta_object_id": "1993-036BCZ",
        "meta_epoch": "2025-12-23T18:38:13.234848",
        "meta_mean_motion": 14.5936425,
        "meta_eccentricity": 0.0026481,
        "meta_inclination": 74.0227,
        "meta_ra_of_asc_node": 34.1244,
        "meta_arg_of_pericenter": 177.1917,
        "meta_mean_anomaly": 182.9402,
        "meta_ephemeris_type": 0,
        "meta_classification_type": "U",
        "meta_norad_cat_id": 36539,
        "meta_element_set_no": 999,
        "meta_rev_at_epoch": 84108,
        "meta_bstar": 0.0005964,
        "meta_mean_motion_dot": 2.807e-05,
        "meta_mean_motion_ddot": 0,
        "tle_line1": "1 36539U 93036BCZ 25357.77654207  .00002807  00000+0  59640-3 0  9990",
        "tle_line2": "2 36539  74.0227  34.1244 0026481 177.1917 182.9402 14.59364250841088"
      },
      "geometry": {
        "type": "Point",
        "coordinates": [
          -130.94983121017216,
          -43.295528033756355
        ]
      }
    },
    {
      "type": "Feature",
      "properties": {
        "norad_id": 36540,
        "name": "COSMOS 2251 DEB",
        "group": "cosmos-2251-debris",
        "lat": 24.865642898818127,
        "lon": -28.86594724527749,
        "alt_km": 693.9040271579433,
        "timestamp": "2025-12-24T03:53:30.044640+00:00",
        "meta_object_name": "COSMOS 2251 DEB",
        "meta_object_id": "1993-036BDA",
        "meta_epoch": "2025-12-23T17:18:36.966816",
        "meta_mean_motion": 14.58583189,
        "meta_eccentricity": 0.0014627,
        "meta_inclination": 74.0279,
        "meta_ra_of_asc_node": 159.6013,
        "meta_arg_of_pericenter": 229.4386,
        "meta_mean_anomaly": 130.5507,
        "meta_ephemeris_type": 0,
        "meta_classification_type": "U",
        "meta_norad_cat_id": 36540,
        "meta_element_set_no": 999,
        "meta_rev_at_epoch": 86170,
        "meta_bstar": 0.0012222,
        "meta_mean_motion_dot": 5.671e-05,
        "meta_mean_motion_ddot": 0,
        "tle_line1": "1 36540U 93036BDA 25357.72126119  .00005671  00000+0  12222-2 0  9999",
        "tle_line2": "2 36540  74.0279 159.6013 0014627 229.4386 130.5507 14.58583189861703"
      },
      "geometry": {
        "type": "Point",
        "coordinates": [
          -28.86594724527749,
          24.865642898818127
        ]
      }
    }
  ]
}